{"type":"FeatureCollection","features":[{"type":"Feature","geometry":{"type":"Point","coordinates":[121.78082686581286,25.045946621782306]},"properties":{"supply_id":"new_taipei-parking-240002","city":"new_taipei","district":"平溪區","display_name":"十分第二停車場","address":"新北市平溪區靜安路3段356-3號","facility_kind":"public_parking","symbol_text":"S","type_reference":"一般停車場","type_confidence":1,"price_raw":"大型車計時200元;小型車計時50元;","price_value":200,"capacity_total":106,"available_total":null,"occupied_total":null,"status_label":"狀態未知","data_time":"2026-05-03 06:08:01.942681+08:00","city_label":"新北市","facility_kind_label":"停車場","available_rate":null,"occupancy_rate":null,"price_tier":"premium","price_tier_label":"極高價"}},{"type":"Feature","geometry":{"type":"Point","coordinates":[121.78242319494957,25.046701070389425]},"properties":{"supply_id":"new_taipei-parking-240001","city":"new_taipei","district":"平溪區","display_name":"平溪停三停車場","address":"新北市平溪區南山坪136號對面空地","facility_kind":"public_parking","symbol_text":"S","type_reference":"一般停車場","type_confidence":1,"price_raw":"小型車計時40元;小型車月租4000元;","price_value":4000,"capacity_total":124,"available_total":null,"occupied_total":null,"status_label":"狀態未知","data_time":"2026-05-03 06:08:01.942681+08:00","city_label":"新北市","facility_kind_label":"停車場","available_rate":null,"occupancy_rate":null,"price_tier":"premium","price_tier_label":"極高價"}}]}