{"type":"FeatureCollection","features":[{"type":"Feature","geometry":{"type":"Point","coordinates":[121.5005246346968,25.258852456669374]},"properties":{"supply_id":"new_taipei-parking-210001","city":"new_taipei","district":"三芝區","display_name":"三芝中山立體停車場","address":"新北市三芝區淡金路一段61號","facility_kind":"public_parking","symbol_text":"S","type_reference":"一般停車場","type_confidence":1,"price_raw":"小型車計時10元;小型車月租1200元;","price_value":1200,"capacity_total":154,"available_total":null,"occupied_total":null,"status_label":"狀態未知","data_time":"2026-05-03 06:08:01.942681+08:00","city_label":"新北市","facility_kind_label":"停車場","available_rate":null,"occupancy_rate":null,"price_tier":"premium","price_tier_label":"極高價"}},{"type":"Feature","geometry":{"type":"Point","coordinates":[121.50337764897156,25.25496078358519]},"properties":{"supply_id":"new_taipei-parking-210002","city":"new_taipei","district":"三芝區","display_name":"三芝中正立體停車場","address":"新北市三芝區中山路二段48-1號","facility_kind":"public_parking","symbol_text":"S","type_reference":"一般停車場","type_confidence":1,"price_raw":"小型車計時10元;小型車月租1200元;","price_value":1200,"capacity_total":261,"available_total":null,"occupied_total":null,"status_label":"狀態未知","data_time":"2026-05-03 06:08:01.942681+08:00","city_label":"新北市","facility_kind_label":"停車場","available_rate":null,"occupancy_rate":null,"price_tier":"premium","price_tier_label":"極高價"}},{"type":"Feature","geometry":{"type":"Point","coordinates":[121.52920434629921,25.183640601062105]},"properties":{"supply_id":"new_taipei-parking-210007","city":"new_taipei","district":"三芝區","display_name":"鞍部停車場","address":"新北市三芝區大屯山鞍部登山口對面","facility_kind":"public_parking","symbol_text":"S","type_reference":"一般停車場","type_confidence":1,"price_raw":"小型車計時30元;機車計次20元;","price_value":30,"capacity_total":26,"available_total":null,"occupied_total":null,"status_label":"狀態未知","data_time":"2026-05-03 06:08:01.942681+08:00","city_label":"新北市","facility_kind_label":"停車場","available_rate":null,"occupancy_rate":null,"price_tier":"medium","price_tier_label":"中價"}},{"type":"Feature","geometry":{"type":"Point","coordinates":[121.52094460232323,25.18546646660743]},"properties":{"supply_id":"new_taipei-parking-210005","city":"new_taipei","district":"三芝區","display_name":"大屯2號停車場","address":"新北市三芝區大屯自然公園旁","facility_kind":"public_parking","symbol_text":"S","type_reference":"一般停車場","type_confidence":1,"price_raw":"小型車計時20元;","price_value":20,"capacity_total":37,"available_total":null,"occupied_total":null,"status_label":"狀態未知","data_time":"2026-05-03 06:08:01.942681+08:00","city_label":"新北市","facility_kind_label":"停車場","available_rate":null,"occupancy_rate":null,"price_tier":"low","price_tier_label":"低價"}},{"type":"Feature","geometry":{"type":"Point","coordinates":[121.52228310293215,25.186183981238432]},"properties":{"supply_id":"new_taipei-parking-210004","city":"new_taipei","district":"三芝區","display_name":"大屯1號停車場","address":"新北市三芝區大屯自然公園旁","facility_kind":"public_parking","symbol_text":"S","type_reference":"一般停車場","type_confidence":1,"price_raw":"小型車計時20元;機車計次20元;","price_value":20,"capacity_total":32,"available_total":null,"occupied_total":null,"status_label":"狀態未知","data_time":"2026-05-03 06:08:01.942681+08:00","city_label":"新北市","facility_kind_label":"停車場","available_rate":null,"occupancy_rate":null,"price_tier":"low","price_tier_label":"低價"}},{"type":"Feature","geometry":{"type":"Point","coordinates":[121.52565536061401,25.18662343466448]},"properties":{"supply_id":"new_taipei-parking-210006","city":"new_taipei","district":"三芝區","display_name":"二子坪停車場","address":"新北市三芝 區二子坪、大屯山車道入口處","facility_kind":"public_parking","symbol_text":"S","type_reference":"一般停車場","type_confidence":1,"price_raw":"小型車計時30元;機車計次20元;","price_value":30,"capacity_total":65,"available_total":null,"occupied_total":null,"status_label":"狀態未知","data_time":"2026-05-03 06:08:01.942681+08:00","city_label":"新北市","facility_kind_label":"停車場","available_rate":null,"occupancy_rate":null,"price_tier":"medium","price_tier_label":"中價"}}]}