{"type":"FeatureCollection","features":[{"type":"Feature","geometry":{"type":"Point","coordinates":[121.68974729973438,25.179810602516184]},"properties":{"supply_id":"new_taipei-parking-280008","city":"new_taipei","district":"萬里區","display_name":"萬里區商業文教綜合大樓地下停車場","address":"萬里區瑪鍊路221號","facility_kind":"public_parking","symbol_text":"S","type_reference":"一般停車場","type_confidence":1,"price_raw":"小型車月租1000元;","price_value":1000,"capacity_total":18,"available_total":null,"occupied_total":null,"status_label":"狀態未知","data_time":"2026-05-03 06:08:01.942681+08:00","city_label":"新北市","facility_kind_label":"停車場","available_rate":null,"occupancy_rate":null,"price_tier":"premium","price_tier_label":"極高價"}},{"type":"Feature","geometry":{"type":"Point","coordinates":[121.69109418206163,25.20435973669464]},"properties":{"supply_id":"new_taipei-parking-280010","city":"new_taipei","district":"萬里區","display_name":"野柳海洋世界停車場","address":"新北市萬里區野柳里港東路167-3號","facility_kind":"public_parking","symbol_text":"S","type_reference":"一般停車場","type_confidence":1,"price_raw":"小型車計時20元;","price_value":20,"capacity_total":82,"available_total":null,"occupied_total":null,"status_label":"狀態未知","data_time":"2026-05-03 06:08:01.942681+08:00","city_label":"新北市","facility_kind_label":"停車場","available_rate":null,"occupancy_rate":null,"price_tier":"low","price_tier_label":"低價"}},{"type":"Feature","geometry":{"type":"Point","coordinates":[121.68918865673321,25.178382307667892]},"properties":{"supply_id":"new_taipei-parking-280007","city":"new_taipei","district":"萬里區","display_name":"萬里行政大樓B1停車場","address":"新北市萬里區瑪鋉路123號B1","facility_kind":"public_parking","symbol_text":"S","type_reference":"一般停車場","type_confidence":1,"price_raw":"小型車計時20元;小型車月租1200元;","price_value":1200,"capacity_total":35,"available_total":null,"occupied_total":null,"status_label":"狀態未知","data_time":"2026-05-03 06:08:01.942681+08:00","city_label":"新北市","facility_kind_label":"停車場","available_rate":null,"occupancy_rate":null,"price_tier":"premium","price_tier_label":"極高價"}}]}