{"type":"FeatureCollection","features":[{"type":"Feature","geometry":{"type":"Point","coordinates":[121.86448579411896,25.121942758456527]},"properties":{"supply_id":"new_taipei-parking-120005","city":"new_taipei","district":"瑞芳區","display_name":"水湳洞停車場","address":"新北市瑞芳區水湳洞段4、4-1、27-3、27-9地號(台2線78.5K)","facility_kind":"public_parking","symbol_text":"S","type_reference":"一般停車場","type_confidence":1,"price_raw":"小型車免費;","price_value":null,"capacity_total":300,"available_total":null,"occupied_total":null,"status_label":"狀態未知","data_time":"2026-05-03 06:08:01.942681+08:00","city_label":"新北市","facility_kind_label":"停車場","available_rate":null,"occupancy_rate":null,"price_tier":"unknown","price_tier_label":"價格未知"}},{"type":"Feature","geometry":{"type":"Point","coordinates":[121.82282199990564,25.13381599875099]},"properties":{"supply_id":"new_taipei-parking-120016","city":"new_taipei","district":"瑞芳區","display_name":"瑞芳區漁會第一停車場","address":"新北市瑞芳區深澳路189-5號前方入口","facility_kind":"public_parking","symbol_text":"S","type_reference":"一般停車場","type_confidence":1,"price_raw":"大型車計次150元;小型車計時30元;","price_value":150,"capacity_total":104,"available_total":null,"occupied_total":null,"status_label":"狀態未知","data_time":"2026-05-03 06:08:01.942681+08:00","city_label":"新北市","facility_kind_label":"停車場","available_rate":null,"occupancy_rate":null,"price_tier":"premium","price_tier_label":"極高價"}},{"type":"Feature","geometry":{"type":"Point","coordinates":[121.82982971499678,25.11112079794064]},"properties":{"supply_id":"new_taipei-parking-120018","city":"new_taipei","district":"瑞芳區","display_name":"新九號停車場","address":"新北市瑞芳區102縣道(瑞金公路)12公里處","facility_kind":"public_parking","symbol_text":"S","type_reference":"一般停車場","type_confidence":1,"price_raw":"大型車計時400元;小型車計次400元;","price_value":400,"capacity_total":0,"available_total":null,"occupied_total":null,"status_label":"狀態未知","data_time":"2026-05-03 06:08:01.942681+08:00","city_label":"新北市","facility_kind_label":"停車場","available_rate":null,"occupancy_rate":null,"price_tier":"premium","price_tier_label":"極高價"}},{"type":"Feature","geometry":{"type":"Point","coordinates":[121.80455655754892,25.10802998470523]},"properties":{"supply_id":"new_taipei-parking-120010","city":"new_taipei","district":"瑞芳區","display_name":"瑞芳國民小學停車場","address":"新北市瑞芳區中山路2號B1","facility_kind":"public_parking","symbol_text":"S","type_reference":"一般停車場","type_confidence":1,"price_raw":"小型車計時20元;小型車月租1000元;","price_value":1000,"capacity_total":13,"available_total":null,"occupied_total":null,"status_label":"狀態未知","data_time":"2026-05-03 06:08:01.942681+08:00","city_label":"新北市","facility_kind_label":"停車場","available_rate":null,"occupancy_rate":null,"price_tier":"premium","price_tier_label":"極高價"}},{"type":"Feature","geometry":{"type":"Point","coordinates":[121.82016599994586,25.1320179989259]},"properties":{"supply_id":"new_taipei-parking-120017","city":"new_taipei","district":"瑞芳區","display_name":"瑞芳區漁會深澳漁港第二停車場","address":"新北市瑞芳區深澳路20號兩側","facility_kind":"public_parking","symbol_text":"S","type_reference":"一般停車場","type_confidence":1,"price_raw":"大型車計次150元;小型車計時30元;","price_value":150,"capacity_total":119,"available_total":null,"occupied_total":null,"status_label":"狀態未知","data_time":"2026-05-03 06:08:01.942681+08:00","city_label":"新北市","facility_kind_label":"停車場","available_rate":null,"occupancy_rate":null,"price_tier":"premium","price_tier_label":"極高價"}},{"type":"Feature","geometry":{"type":"Point","coordinates":[121.91349597783982,25.12417922710763]},"properties":{"supply_id":"new_taipei-parking-120020","city":"new_taipei","district":"瑞芳區","display_name":"鼻頭港旁平面停車場","address":"新北市瑞芳區鼻頭路237號對面","facility_kind":"public_parking","symbol_text":"S","type_reference":"一般停車場","type_confidence":1,"price_raw":"小型車計時100元;","price_value":100,"capacity_total":14,"available_total":null,"occupied_total":null,"status_label":"狀態未知","data_time":"2026-05-03 06:08:01.942681+08:00","city_label":"新北市","facility_kind_label":"停車場","available_rate":null,"occupancy_rate":null,"price_tier":"premium","price_tier_label":"極高價"}},{"type":"Feature","geometry":{"type":"Point","coordinates":[121.8056259999473,25.109724998808133]},"properties":{"supply_id":"new_taipei-parking-120014","city":"new_taipei","district":"瑞芳區","display_name":"瑞芳區後火車站平面停車場","address":"新北市瑞芳區瑞芳街54號對面","facility_kind":"public_parking","symbol_text":"S","type_reference":"一般停車場","type_confidence":1,"price_raw":"小型車計時20元;小型車計時30元;小型車月租2000元;身障車月租1500元;","price_value":2000,"capacity_total":66,"available_total":null,"occupied_total":null,"status_label":"狀態未知","data_time":"2026-05-03 06:08:01.942681+08:00","city_label":"新北市","facility_kind_label":"停車場","available_rate":null,"occupancy_rate":null,"price_tier":"premium","price_tier_label":"極高價"}},{"type":"Feature","geometry":{"type":"Point","coordinates":[121.8483530011119,25.11153319282152]},"properties":{"supply_id":"new_taipei-parking-120021","city":"new_taipei","district":"瑞芳區","display_name":"隔頂平面停車場","address":"新北市瑞芳區瑞雙公路及瑞金公路口旁空地","facility_kind":"public_parking","symbol_text":"S","type_reference":"一般停車場","type_confidence":1,"price_raw":"小型車計次150元;小型車計時50元;小型車月租10000元;身障車月租5000元;重型機車計次150元;重型機車計時50元;重型機車月租10000元;","price_value":10000,"capacity_total":61,"available_total":null,"occupied_total":null,"status_label":"狀態未知","data_time":"2026-05-03 06:08:01.942681+08:00","city_label":"新北市","facility_kind_label":"停車場","available_rate":null,"occupancy_rate":null,"price_tier":"premium","price_tier_label":"極高價"}}]}