{"type":"FeatureCollection","features":[{"type":"Feature","geometry":{"type":"Point","coordinates":[121.91621390539979,25.117655434435317]},"properties":{"supply_id":"new_taipei-parking-260007","city":"new_taipei","district":"貢寮區","display_name":"龍洞灣海洋公園停車場","address":"新北市貢寮區龍洞街63-8號","facility_kind":"public_parking","symbol_text":"S","type_reference":"一般停車場","type_confidence":1,"price_raw":"小型車計時30元;","price_value":30,"capacity_total":19,"available_total":null,"occupied_total":null,"status_label":"狀態未知","data_time":"2026-05-03 06:08:01.942681+08:00","city_label":"新北市","facility_kind_label":"停車場","available_rate":null,"occupancy_rate":null,"price_tier":"medium","price_tier_label":"中價"}},{"type":"Feature","geometry":{"type":"Point","coordinates":[121.915288485103,25.1168161772199]},"properties":{"supply_id":"new_taipei-parking-260008","city":"new_taipei","district":"貢寮區","display_name":"貢寮龍洞灣平面停車場","address":"新北市貢寮區龍洞街63-8號旁空地停車場","facility_kind":"public_parking","symbol_text":"S","type_reference":"一般停車場","type_confidence":1,"price_raw":"大型車計次150元;小型車計時50元;","price_value":150,"capacity_total":99,"available_total":null,"occupied_total":null,"status_label":"狀態未知","data_time":"2026-05-03 06:08:01.942681+08:00","city_label":"新北市","facility_kind_label":"停車場","available_rate":null,"occupancy_rate":null,"price_tier":"premium","price_tier_label":"極高價"}},{"type":"Feature","geometry":{"type":"Point","coordinates":[121.92562494685431,25.053767900391904]},"properties":{"supply_id":"new_taipei-parking-260005","city":"new_taipei","district":"貢寮區","display_name":"貢寮澳底公園地下停車場","address":"新北市貢寮區仁愛路43號B1","facility_kind":"public_parking","symbol_text":"S","type_reference":"一般停車場","type_confidence":1,"price_raw":"小型車計時20元;小型車月租1000元;身障車月租500元;重型機車月租500元;機車免費;","price_value":1000,"capacity_total":88,"available_total":null,"occupied_total":null,"status_label":"狀態未知","data_time":"2026-05-03 06:08:01.942681+08:00","city_label":"新北市","facility_kind_label":"停車場","available_rate":null,"occupancy_rate":null,"price_tier":"premium","price_tier_label":"極高價"}}]}